[{"OBJECT_NAME":"CARTOSAT-2D","OBJECT_ID":"2017-008A","EPOCH":"2026-04-26T20:25:55.242048","MEAN_MOTION":15.19273549,"ECCENTRICITY":0.0005606,"INCLINATION":97.4147,"RA_OF_ASC_NODE":177.1027,"ARG_OF_PERICENTER":70.1993,"MEAN_ANOMALY":289.9846,"EPHEMERIS_TYPE":0,"CLASSIFICATION_TYPE":"U","NORAD_CAT_ID":41948,"ELEMENT_SET_NO":999,"REV_AT_EPOCH":50978,"BSTAR":0.00019221,"MEAN_MOTION_DOT":3.987e-5,"MEAN_MOTION_DDOT":0},{"OBJECT_NAME":"SENTINEL-2B","OBJECT_ID":"2017-013A","EPOCH":"2026-04-26T19:24:45.890208","MEAN_MOTION":14.30814504,"ECCENTRICITY":0.0001224,"INCLINATION":98.5648,"RA_OF_ASC_NODE":192.3109,"ARG_OF_PERICENTER":90.4298,"MEAN_ANOMALY":269.7025,"EPHEMERIS_TYPE":0,"CLASSIFICATION_TYPE":"U","NORAD_CAT_ID":42063,"ELEMENT_SET_NO":999,"REV_AT_EPOCH":47729,"BSTAR":8.6929e-5,"MEAN_MOTION_DOT":1.84e-6,"MEAN_MOTION_DDOT":0},{"OBJECT_NAME":"CARTOSAT-2E","OBJECT_ID":"2017-036C","EPOCH":"2026-04-26T01:52:26.079168","MEAN_MOTION":15.19301263,"ECCENTRICITY":0.00042867,"INCLINATION":97.4315,"RA_OF_ASC_NODE":176.7266,"ARG_OF_PERICENTER":122.6561,"MEAN_ANOMALY":237.5088,"EPHEMERIS_TYPE":0,"CLASSIFICATION_TYPE":"U","NORAD_CAT_ID":42767,"ELEMENT_SET_NO":999,"REV_AT_EPOCH":49023,"BSTAR":6.733428e-6,"MEAN_MOTION_DOT":7.5e-7,"MEAN_MOTION_DDOT":0},{"OBJECT_NAME":"FORMOSAT-5","OBJECT_ID":"2017-049A","EPOCH":"2026-04-26T19:30:19.204128","MEAN_MOTION":14.50877896,"ECCENTRICITY":0.001037,"INCLINATION":98.2259,"RA_OF_ASC_NODE":193.2614,"ARG_OF_PERICENTER":237.0569,"MEAN_ANOMALY":122.9629,"EPHEMERIS_TYPE":0,"CLASSIFICATION_TYPE":"U","NORAD_CAT_ID":42920,"ELEMENT_SET_NO":999,"REV_AT_EPOCH":45922,"BSTAR":5.5135e-5,"MEAN_MOTION_DOT":1.74e-6,"MEAN_MOTION_DDOT":0},{"OBJECT_NAME":"SENTINEL-5P","OBJECT_ID":"2017-064A","EPOCH":"2026-04-26T19:37:05.202048","MEAN_MOTION":14.19509975,"ECCENTRICITY":0.0001247,"INCLINATION":98.7942,"RA_OF_ASC_NODE":59.3182,"ARG_OF_PERICENTER":81.1452,"MEAN_ANOMALY":278.9865,"EPHEMERIS_TYPE":0,"CLASSIFICATION_TYPE":"U","NORAD_CAT_ID":42969,"ELEMENT_SET_NO":999,"REV_AT_EPOCH":44227,"BSTAR":4.5728e-5,"MEAN_MOTION_DOT":5.2e-7,"MEAN_MOTION_DDOT":0},{"OBJECT_NAME":"SKYSAT-C11","OBJECT_ID":"2017-068A","EPOCH":"2026-04-26T08:52:19.265088","MEAN_MOTION":15.55203934,"ECCENTRICITY":0.00014822,"INCLINATION":97.4284,"RA_OF_ASC_NODE":263.0744,"ARG_OF_PERICENTER":139.5781,"MEAN_ANOMALY":220.5583,"EPHEMERIS_TYPE":0,"CLASSIFICATION_TYPE":"U","NORAD_CAT_ID":42987,"ELEMENT_SET_NO":999,"REV_AT_EPOCH":47518,"BSTAR":0.00049813301,"MEAN_MOTION_DOT":0.00033634,"MEAN_MOTION_DDOT":0},{"OBJECT_NAME":"SKYSAT-C10","OBJECT_ID":"2017-068B","EPOCH":"2026-04-26T19:56:28.995360","MEAN_MOTION":15.33722482,"ECCENTRICITY":0.0001643,"INCLINATION":97.4423,"RA_OF_ASC_NODE":253.2369,"ARG_OF_PERICENTER":110.1799,"MEAN_ANOMALY":249.962,"EPHEMERIS_TYPE":0,"CLASSIFICATION_TYPE":"U","NORAD_CAT_ID":42988,"ELEMENT_SET_NO":999,"REV_AT_EPOCH":47448,"BSTAR":0.0003271,"MEAN_MOTION_DOT":0.0001059,"MEAN_MOTION_DDOT":0},{"OBJECT_NAME":"SKYSAT-C9","OBJECT_ID":"2017-068C","EPOCH":"2026-04-26T19:22:28.640352","MEAN_MOTION":15.402849,"ECCENTRICITY":0.0007555,"INCLINATION":97.4345,"RA_OF_ASC_NODE":253.6717,"ARG_OF_PERICENTER":328.365,"MEAN_ANOMALY":31.7141,"EPHEMERIS_TYPE":0,"CLASSIFICATION_TYPE":"U","NORAD_CAT_ID":42989,"ELEMENT_SET_NO":999,"REV_AT_EPOCH":47484,"BSTAR":0.00034847,"MEAN_MOTION_DOT":0.00013969,"MEAN_MOTION_DDOT":0},{"OBJECT_NAME":"SKYSAT-C8","OBJECT_ID":"2017-068D","EPOCH":"2026-04-26T19:30:43.687296","MEAN_MOTION":15.35933826,"ECCENTRICITY":0.0001185,"INCLINATION":97.444,"RA_OF_ASC_NODE":252.8278,"ARG_OF_PERICENTER":111.926,"MEAN_ANOMALY":248.2109,"EPHEMERIS_TYPE":0,"CLASSIFICATION_TYPE":"U","NORAD_CAT_ID":42990,"ELEMENT_SET_NO":999,"REV_AT_EPOCH":47442,"BSTAR":0.00034568,"MEAN_MOTION_DOT":0.00012015,"MEAN_MOTION_DDOT":0},{"OBJECT_NAME":"SKYSAT-C7","OBJECT_ID":"2017-068E","EPOCH":"2026-04-26T19:18:44.020224","MEAN_MOTION":15.3587696,"ECCENTRICITY":0.000467,"INCLINATION":97.4452,"RA_OF_ASC_NODE":253.8056,"ARG_OF_PERICENTER":293.8212,"MEAN_ANOMALY":66.2541,"EPHEMERIS_TYPE":0,"CLASSIFICATION_TYPE":"U","NORAD_CAT_ID":42991,"ELEMENT_SET_NO":999,"REV_AT_EPOCH":47448,"BSTAR":0.0003894,"MEAN_MOTION_DOT":0.00013526,"MEAN_MOTION_DDOT":0},{"OBJECT_NAME":"SKYSAT-C6","OBJECT_ID":"2017-068F","EPOCH":"2026-04-26T19:22:40.287072","MEAN_MOTION":15.33537283,"ECCENTRICITY":0.000176,"INCLINATION":97.4488,"RA_OF_ASC_NODE":253.9474,"ARG_OF_PERICENTER":0.6825,"MEAN_ANOMALY":359.4419,"EPHEMERIS_TYPE":0,"CLASSIFICATION_TYPE":"U","NORAD_CAT_ID":42992,"ELEMENT_SET_NO":999,"REV_AT_EPOCH":47444,"BSTAR":0.00032711,"MEAN_MOTION_DOT":0.00010528,"MEAN_MOTION_DDOT":0},{"OBJECT_NAME":"CARTOSAT-2F","OBJECT_ID":"2018-004A","EPOCH":"2026-04-26T20:01:26.285664","MEAN_MOTION":15.19278044,"ECCENTRICITY":0.0002408,"INCLINATION":97.4078,"RA_OF_ASC_NODE":177.0994,"ARG_OF_PERICENTER":94.0567,"MEAN_ANOMALY":266.0943,"EPHEMERIS_TYPE":0,"CLASSIFICATION_TYPE":"U","NORAD_CAT_ID":43111,"ELEMENT_SET_NO":999,"REV_AT_EPOCH":45953,"BSTAR":0.00018516,"MEAN_MOTION_DOT":3.838e-5,"MEAN_MOTION_DDOT":0},{"OBJECT_NAME":"GAOFEN-1 02","OBJECT_ID":"2018-031A","EPOCH":"2026-04-26T20:39:13.783680","MEAN_MOTION":14.76443333,"ECCENTRICITY":0.0003459,"INCLINATION":98.056,"RA_OF_ASC_NODE":179.5209,"ARG_OF_PERICENTER":149.5391,"MEAN_ANOMALY":210.602,"EPHEMERIS_TYPE":0,"CLASSIFICATION_TYPE":"U","NORAD_CAT_ID":43259,"ELEMENT_SET_NO":999,"REV_AT_EPOCH":43512,"BSTAR":8.8784e-5,"MEAN_MOTION_DOT":5.66e-6,"MEAN_MOTION_DDOT":0},{"OBJECT_NAME":"GAOFEN-1 03","OBJECT_ID":"2018-031B","EPOCH":"2026-04-26T20:07:45.001056","MEAN_MOTION":14.76432348,"ECCENTRICITY":0.0001539,"INCLINATION":98.0556,"RA_OF_ASC_NODE":179.3629,"ARG_OF_PERICENTER":206.7089,"MEAN_ANOMALY":153.4042,"EPHEMERIS_TYPE":0,"CLASSIFICATION_TYPE":"U","NORAD_CAT_ID":43260,"ELEMENT_SET_NO":999,"REV_AT_EPOCH":43511,"BSTAR":0.0001247,"MEAN_MOTION_DOT":8.16e-6,"MEAN_MOTION_DDOT":0},{"OBJECT_NAME":"GAOFEN-1 04","OBJECT_ID":"2018-031D","EPOCH":"2026-04-26T19:32:39.889248","MEAN_MOTION":14.76467152,"ECCENTRICITY":6.94e-5,"INCLINATION":98.0561,"RA_OF_ASC_NODE":179.5233,"ARG_OF_PERICENTER":97.1141,"MEAN_ANOMALY":263.0147,"EPHEMERIS_TYPE":0,"CLASSIFICATION_TYPE":"U","NORAD_CAT_ID":43262,"ELEMENT_SET_NO":999,"REV_AT_EPOCH":43510,"BSTAR":0.00015867,"MEAN_MOTION_DOT":1.053e-5,"MEAN_MOTION_DDOT":0},{"OBJECT_NAME":"SENTINEL-3B","OBJECT_ID":"2018-039A","EPOCH":"2026-04-26T18:49:41.500704","MEAN_MOTION":14.26733862,"ECCENTRICITY":0.0001646,"INCLINATION":98.6271,"RA_OF_ASC_NODE":185.0474,"ARG_OF_PERICENTER":92.5649,"MEAN_ANOMALY":267.572,"EPHEMERIS_TYPE":0,"CLASSIFICATION_TYPE":"U","NORAD_CAT_ID":43437,"ELEMENT_SET_NO":999,"REV_AT_EPOCH":41679,"BSTAR":6.6071e-5,"MEAN_MOTION_DOT":1.16e-6,"MEAN_MOTION_DDOT":0},{"OBJECT_NAME":"GAOFEN-5 01","OBJECT_ID":"2018-043A","EPOCH":"2026-04-26T19:39:40.493952","MEAN_MOTION":14.6056827,"ECCENTRICITY":8.77e-5,"INCLINATION":98.4536,"RA_OF_ASC_NODE":87.3395,"ARG_OF_PERICENTER":195.5485,"MEAN_ANOMALY":164.5688,"EPHEMERIS_TYPE":0,"CLASSIFICATION_TYPE":"U","NORAD_CAT_ID":43461,"ELEMENT_SET_NO":999,"REV_AT_EPOCH":42419,"BSTAR":8.8205e-5,"MEAN_MOTION_DOT":3.79e-6,"MEAN_MOTION_DDOT":0}]
