CARTOSAT-2D             
1 41948U 17008A   26116.85133382  .00003987  00000+0  19221-3 0  9995
2 41948  97.4147 177.1027 0005606  70.1993 289.9846 15.19273549509782
SENTINEL-2B             
1 42063U 17013A   26116.80886447  .00000184  00000+0  86929-4 0  9998
2 42063  98.5648 192.3109 0001224  90.4298 269.7025 14.30814504477293
CARTOSAT-2E             
1 42767U 17036C   26116.07807962  .00000075  00000+0  67334-5 0  9997
2 42767  97.4315 176.7266 0004286 122.6561 237.5088 15.19301263490237
FORMOSAT-5              
1 42920U 17049A   26116.81272227  .00000174  00000+0  55135-4 0  9999
2 42920  98.2259 193.2614 0010370 237.0569 122.9629 14.50877896459221
SENTINEL-5P             
1 42969U 17064A   26116.81742132  .00000052  00000+0  45728-4 0  9998
2 42969  98.7942  59.3182 0001247  81.1452 278.9865 14.19509975442278
SKYSAT-C11              
1 42987U 17068A   26116.36966742  .00033634  00000+0  49813-3 0  9997
2 42987  97.4284 263.0744 0001482 139.5781 220.5583 15.55203934475188
SKYSAT-C10              
1 42988U 17068B   26116.83089115  .00010590  00000+0  32710-3 0  9994
2 42988  97.4423 253.2369 0001643 110.1799 249.9620 15.33722482474480
SKYSAT-C9               
1 42989U 17068C   26116.80727593  .00013969  00000+0  34847-3 0  9997
2 42989  97.4345 253.6717 0007555 328.3650  31.7141 15.40284900474843
SKYSAT-C8               
1 42990U 17068D   26116.81300564  .00012015  00000+0  34568-3 0  9996
2 42990  97.4440 252.8278 0001185 111.9260 248.2109 15.35933826474425
SKYSAT-C7               
1 42991U 17068E   26116.80467616  .00013526  00000+0  38940-3 0  9994
2 42991  97.4452 253.8056 0004670 293.8212  66.2541 15.35876960474482
SKYSAT-C6               
1 42992U 17068F   26116.80741073  .00010528  00000+0  32711-3 0  9996
2 42992  97.4488 253.9474 0001760   0.6825 359.4419 15.33537283474445
CARTOSAT-2F             
1 43111U 18004A   26116.83433201  .00003838  00000+0  18516-3 0  9998
2 43111  97.4078 177.0994 0002408  94.0567 266.0943 15.19278044459536
GAOFEN-1 02             
1 43259U 18031A   26116.86057620  .00000566  00000+0  88784-4 0  9991
2 43259  98.0560 179.5209 0003459 149.5391 210.6020 14.76443333435123
GAOFEN-1 03             
1 43260U 18031B   26116.83871529  .00000816  00000+0  12470-3 0  9998
2 43260  98.0556 179.3629 0001539 206.7089 153.4042 14.76432348435112
GAOFEN-1 04             
1 43262U 18031D   26116.81435057  .00001053  00000+0  15867-3 0  9997
2 43262  98.0561 179.5233 0000694  97.1141 263.0147 14.76467152435109
SENTINEL-3B             
1 43437U 18039A   26116.78450811  .00000116  00000+0  66071-4 0  9993
2 43437  98.6271 185.0474 0001646  92.5649 267.5720 14.26733862416795
GAOFEN-5 01             
1 43461U 18043A   26116.81921868  .00000379  00000+0  88205-4 0  9998
2 43461  98.4536  87.3395 0000877 195.5485 164.5688 14.60568270424196
